[{"OBJECT_NAME":"ONEWEB-0303","OBJECT_ID":"2021-083B","EPOCH":"2026-03-09T19:55:07.688640","MEAN_MOTION":13.18685946,"ECCENTRICITY":0.00017097,"INCLINATION":87.9252,"RA_OF_ASC_NODE":355.1915,"ARG_OF_PERICENTER":71.9228,"MEAN_ANOMALY":288.2091,"EPHEMERIS_TYPE":0,"CLASSIFICATION_TYPE":"U","NORAD_CAT_ID":49187,"ELEMENT_SET_NO":999,"REV_AT_EPOCH":21688,"BSTAR":-0.00010909583,"MEAN_MOTION_DOT":-3.0e-7,"MEAN_MOTION_DDOT":0},{"OBJECT_NAME":"UNKNOWN","OBJECT_ID":"","EPOCH":"2026-03-04T23:05:58.793856","MEAN_MOTION":14.04989219,"ECCENTRICITY":0.0516129,"INCLINATION":65.7446,"RA_OF_ASC_NODE":268.6872,"ARG_OF_PERICENTER":256.6593,"MEAN_ANOMALY":97.6465,"EPHEMERIS_TYPE":0,"CLASSIFICATION_TYPE":"U","NORAD_CAT_ID":81995,"ELEMENT_SET_NO":999,"REV_AT_EPOCH":61577,"BSTAR":0.00096399,"MEAN_MOTION_DOT":5.163e-5,"MEAN_MOTION_DDOT":0}]
